start=new Date('2023-01-21T00:00:00.000Z').valueOf();
sats=[{"APOAPSIS":"541.090","OBJECT_NAME":"STARLINK-5144","REF_FRAME":"TEME","MEAN_ELEMENT_THEORY":"SGP4","NORAD_CAT_ID":"54072","TLE_LINE2":"2 54072  53.2174  78.5532 0001931  84.9763 275.1450 15.08837234 14654","OBJECT_TYPE":"PAYLOAD","COUNTRY_CODE":"US","EPHEMERIS_TYPE":"0","RA_OF_ASC_NODE":"78.5532","CENTER_NAME":"EARTH","SEMIMAJOR_AXIS":"6917.889","OBJECT_ID":"2022-136X","LAUNCH_DATE":"2022-10-20","RCS_SIZE":"LARGE","PERIOD":"95.438","CLASSIFICATION_TYPE":"U","TIME_SYSTEM":"UTC","ARG_OF_PERICENTER":"84.9763","INCLINATION":"53.2174","MEAN_MOTION_DOT":"0.00020762","EPOCH":"2023-01-20T21:29:19.212864","TLE_LINE1":"1 54072U 22136X   23020.89536126  .00020762  00000-0  13188-2 0  9999","ECCENTRICITY":"0.00019310","MEAN_MOTION":"15.08837234","GP_ID":"223556382","MEAN_ANOMALY":"275.1450","MEAN_MOTION_DDOT":"0.0000000000000","SITE":"AFETR","FILE":"3756250","ELEMENT_SET_NO":"999","BSTAR":"0.00131880000000","PERIAPSIS":"538.418","DECAY_DATE":null,"REV_AT_EPOCH":"1465"},{"EPOCH":"2023-01-20T21:07:36.586848","MEAN_MOTION_DOT":"0.00020757","INCLINATION":"53.2183","CLASSIFICATION_TYPE":"U","ARG_OF_PERICENTER":"67.4950","TIME_SYSTEM":"UTC","MEAN_MOTION":"15.08855120","ECCENTRICITY":"0.00016320","TLE_LINE1":"1 54073U 22136Y   23020.88028457  .00020757  00000-0  13179-2 0  9996","SITE":"AFETR","MEAN_MOTION_DDOT":"0.0000000000000","MEAN_ANOMALY":"292.6214","GP_ID":"223556715","DECAY_DATE":null,"REV_AT_EPOCH":"1471","PERIAPSIS":"538.570","BSTAR":"0.00131790000000","ELEMENT_SET_NO":"999","FILE":"3756250","OBJECT_NAME":"STARLINK-5146","APOAPSIS":"540.828","TLE_LINE2":"2 54073  53.2183  74.1661 0001632  67.4950 292.6214 15.08855120 14715","OBJECT_TYPE":"PAYLOAD","NORAD_CAT_ID":"54073","MEAN_ELEMENT_THEORY":"SGP4","REF_FRAME":"TEME","OBJECT_ID":"2022-136Y","SEMIMAJOR_AXIS":"6917.834","CENTER_NAME":"EARTH","RA_OF_ASC_NODE":"74.1661","EPHEMERIS_TYPE":"0","COUNTRY_CODE":"US","PERIOD":"95.437","RCS_SIZE":"LARGE","LAUNCH_DATE":"2022-10-20"},{"MEAN_ELEMENT_THEORY":"SGP4","REF_FRAME":"TEME","OBJECT_TYPE":"PAYLOAD","TLE_LINE2":"2 54074  53.2160  80.5522 0000807  75.2600 284.8481 15.08837561 14101","NORAD_CAT_ID":"54074","OBJECT_NAME":"STARLINK-5192","APOAPSIS":"540.311","PERIOD":"95.438","RCS_SIZE":"LARGE","LAUNCH_DATE":"2022-10-20","EPHEMERIS_TYPE":"0","COUNTRY_CODE":"US","SEMIMAJOR_AXIS":"6917.888","OBJECT_ID":"2022-136Z","CENTER_NAME":"EARTH","RA_OF_ASC_NODE":"80.5522","MEAN_MOTION":"15.08837561","ECCENTRICITY":"0.00008070","TLE_LINE1":"1 54074U 22136Z   23020.42062224  .00022361  00000-0  14187-2 0  9990","INCLINATION":"53.2160","ARG_OF_PERICENTER":"75.2600","CLASSIFICATION_TYPE":"U","TIME_SYSTEM":"UTC","EPOCH":"2023-01-20T10:05:41.761536","MEAN_MOTION_DOT":"0.00022361","REV_AT_EPOCH":"1410","DECAY_DATE":null,"BSTAR":"0.00141870000000","PERIAPSIS":"539.195","ELEMENT_SET_NO":"999","FILE":"3755973","MEAN_ANOMALY":"284.8481","GP_ID":"223548972","SITE":"AFETR","MEAN_MOTION_DDOT":"0.0000000000000"},{"MEAN_MOTION":"15.08861704","ECCENTRICITY":"0.00011530","TLE_LINE1":"1 54075U 22136AA  23020.85448250 -.00005190  00000-0 -30807-3 0  9996","ARG_OF_PERICENTER":"69.4570","CLASSIFICATION_TYPE":"U","TIME_SYSTEM":"UTC","INCLINATION":"53.2186","EPOCH":"2023-01-20T20:30:27.288000","MEAN_MOTION_DOT":"-0.00005190","BSTAR":"-0.00030807000000","PERIAPSIS":"538.881","REV_AT_EPOCH":"1471","DECAY_DATE":null,"FILE":"3756250","ELEMENT_SET_NO":"999","GP_ID":"223556713","MEAN_ANOMALY":"290.6546","SITE":"AFETR","MEAN_MOTION_DDOT":"0.0000000000000","REF_FRAME":"TEME","MEAN_ELEMENT_THEORY":"SGP4","NORAD_CAT_ID":"54075","TLE_LINE2":"2 54075  53.2186  73.9980 0001153  69.4570 290.6546 15.08861704 14710","OBJECT_TYPE":"PAYLOAD","APOAPSIS":"540.477","OBJECT_NAME":"STARLINK-5212","PERIOD":"95.436","LAUNCH_DATE":"2022-10-20","RCS_SIZE":"LARGE","EPHEMERIS_TYPE":"0","COUNTRY_CODE":"US","CENTER_NAME":"EARTH","SEMIMAJOR_AXIS":"6917.814","OBJECT_ID":"2022-136AA","RA_OF_ASC_NODE":"73.9980"},{"GP_ID":"223550451","MEAN_ANOMALY":"272.3244","SITE":"AFETR","MEAN_MOTION_DDOT":"0.0000000000000","BSTAR":"0.00002774500000","PERIAPSIS":"538.579","REV_AT_EPOCH":"1411","DECAY_DATE":null,"FILE":"3755973","ELEMENT_SET_NO":"999","CLASSIFICATION_TYPE":"U","ARG_OF_PERICENTER":"87.7942","TIME_SYSTEM":"UTC","INCLINATION":"53.2168","EPOCH":"2023-01-20T11:35:46.707936","MEAN_MOTION_DOT":"0.00000154","ECCENTRICITY":"0.00016950","MEAN_MOTION":"15.08837902","TLE_LINE1":"1 54076U 22136AB  23020.48317949  .00000154  00000-0  27745-4 0  9997","EPHEMERIS_TYPE":"0","COUNTRY_CODE":"US","CENTER_NAME":"EARTH","OBJECT_ID":"2022-136AB","SEMIMAJOR_AXIS":"6917.887","RA_OF_ASC_NODE":"80.2364","PERIOD":"95.438","LAUNCH_DATE":"2022-10-20","RCS_SIZE":"LARGE","APOAPSIS":"540.924","OBJECT_NAME":"STARLINK-5201","REF_FRAME":"TEME","MEAN_ELEMENT_THEORY":"SGP4","NORAD_CAT_ID":"54076","OBJECT_TYPE":"PAYLOAD","TLE_LINE2":"2 54076  53.2168  80.2364 0001695  87.7942 272.3244 15.08837902 14114"},{"NORAD_CAT_ID":"54077","TLE_LINE2":"2 54077  53.2110  59.6109 0001326  76.1519 120.5352 15.11282154  1300","OBJECT_TYPE":"PAYLOAD","REF_FRAME":"TEME","MEAN_ELEMENT_THEORY":"SGP4","APOAPSIS":"533.207","OBJECT_NAME":"STARLINK-5171","LAUNCH_DATE":"2022-10-20","RCS_SIZE":"LARGE","PERIOD":"95.283","RA_OF_ASC_NODE":"59.6109","CENTER_NAME":"EARTH","OBJECT_ID":"2022-136AC","SEMIMAJOR_AXIS":"6910.426","COUNTRY_CODE":"US","EPHEMERIS_TYPE":"0","TLE_LINE1":"1 54077U 22136AC  23020.66667824 -.00957856  00000-0 -61017-1 0  9997","ECCENTRICITY":"0.00013260","MEAN_MOTION":"15.11282154","MEAN_MOTION_DOT":"-0.00957856","EPOCH":"2023-01-20T16:00:00.999936","ARG_OF_PERICENTER":"76.1519","CLASSIFICATION_TYPE":"U","TIME_SYSTEM":"UTC","INCLINATION":"53.2110","FILE":"3755973","ELEMENT_SET_NO":"999","PERIAPSIS":"531.374","BSTAR":"-0.06101700000000","REV_AT_EPOCH":"130","DECAY_DATE":null,"MEAN_MOTION_DDOT":"0.0000000000000","SITE":"AFETR","GP_ID":"223549220","MEAN_ANOMALY":"120.5352"},{"APOAPSIS":"540.565","OBJECT_NAME":"STARLINK-5138","REF_FRAME":"TEME","MEAN_ELEMENT_THEORY":"SGP4","NORAD_CAT_ID":"54078","TLE_LINE2":"2 54078  53.2160  59.9498 0001272  77.7686 304.0702 15.08859769  1308","OBJECT_TYPE":"PAYLOAD","COUNTRY_CODE":"US","EPHEMERIS_TYPE":"0","RA_OF_ASC_NODE":"59.9498","CENTER_NAME":"EARTH","SEMIMAJOR_AXIS":"6917.820","OBJECT_ID":"2022-136AD","RCS_SIZE":"LARGE","LAUNCH_DATE":"2022-10-20","PERIOD":"95.436","TIME_SYSTEM":"UTC","CLASSIFICATION_TYPE":"U","ARG_OF_PERICENTER":"77.7686","INCLINATION":"53.2160","MEAN_MOTION_DOT":"-0.00032425","EPOCH":"2023-01-20T16:00:00.999936","TLE_LINE1":"1 54078U 22136AD  23020.66667824 -.00032425  00000-0 -20273-2 0  9994","ECCENTRICITY":"0.00012720","MEAN_MOTION":"15.08859769","GP_ID":"223549467","MEAN_ANOMALY":"304.0702","MEAN_MOTION_DDOT":"0.0000000000000","SITE":"AFETR","FILE":"3755973","ELEMENT_SET_NO":"999","PERIAPSIS":"538.805","BSTAR":"-0.00202730000000","REV_AT_EPOCH":"130","DECAY_DATE":null},{"RA_OF_ASC_NODE":"69.7204","OBJECT_ID":"2022-136AE","SEMIMAJOR_AXIS":"6917.952","CENTER_NAME":"EARTH","COUNTRY_CODE":"US","EPHEMERIS_TYPE":"0","LAUNCH_DATE":"2022-10-20","RCS_SIZE":"LARGE","PERIOD":"95.439","OBJECT_NAME":"STARLINK-5175","APOAPSIS":"540.889","TLE_LINE2":"2 54079  53.2155  69.7204 0001549  84.8300 275.2869 15.08816486 14762","OBJECT_TYPE":"PAYLOAD","NORAD_CAT_ID":"54079","MEAN_ELEMENT_THEORY":"SGP4","REF_FRAME":"TEME","MEAN_MOTION_DDOT":"0.0000000000000","SITE":"AFETR","MEAN_ANOMALY":"275.2869","GP_ID":"223556721","ELEMENT_SET_NO":"999","FILE":"3756250","DECAY_DATE":null,"REV_AT_EPOCH":"1476","BSTAR":"0.00089245000000","PERIAPSIS":"538.746","MEAN_MOTION_DOT":"0.00013935","EPOCH":"2023-01-20T17:48:09.498240","INCLINATION":"53.2155","CLASSIFICATION_TYPE":"U","TIME_SYSTEM":"UTC","ARG_OF_PERICENTER":"84.8300","TLE_LINE1":"1 54079U 22136AE  23020.74177660  .00013935  00000-0  89245-3 0  9996","MEAN_MOTION":"15.08816486","ECCENTRICITY":"0.00015490"},{"EPOCH":"2023-01-20T19:58:44.637312","MEAN_MOTION_DOT":"-0.00003527","INCLINATION":"53.2189","CLASSIFICATION_TYPE":"U","TIME_SYSTEM":"UTC","ARG_OF_PERICENTER":"87.5501","MEAN_MOTION":"15.08850081","ECCENTRICITY":"0.00012590","TLE_LINE1":"1 54080U 22136AF  23020.83246108 -.00003527  00000-0 -20358-3 0  9990","SITE":"AFETR","MEAN_MOTION_DDOT":"0.0000000000000","MEAN_ANOMALY":"272.5635","GP_ID":"223556394","DECAY_DATE":null,"REV_AT_EPOCH":"1470","BSTAR":"-0.00020358000000","PERIAPSIS":"538.844","ELEMENT_SET_NO":"999","FILE":"3756250","OBJECT_NAME":"STARLINK-5160","APOAPSIS":"540.586","TLE_LINE2":"2 54080  53.2189  74.5739 0001259  87.5501 272.5635 15.08850081 14703","OBJECT_TYPE":"PAYLOAD","NORAD_CAT_ID":"54080","MEAN_ELEMENT_THEORY":"SGP4","REF_FRAME":"TEME","SEMIMAJOR_AXIS":"6917.850","OBJECT_ID":"2022-136AF","CENTER_NAME":"EARTH","RA_OF_ASC_NODE":"74.5739","EPHEMERIS_TYPE":"0","COUNTRY_CODE":"US","PERIOD":"95.437","RCS_SIZE":"LARGE","LAUNCH_DATE":"2022-10-20"},{"REF_FRAME":"TEME","MEAN_ELEMENT_THEORY":"SGP4","NORAD_CAT_ID":"54081","TLE_LINE2":"2 54081  53.2174  69.0792 0000891  96.1855 263.9239 15.08854617 14786","OBJECT_TYPE":"PAYLOAD","APOAPSIS":"540.317","OBJECT_NAME":"STARLINK-5165","PERIOD":"95.437","RCS_SIZE":"LARGE","LAUNCH_DATE":"2022-10-20","EPHEMERIS_TYPE":"0","COUNTRY_CODE":"US","CENTER_NAME":"EARTH","OBJECT_ID":"2022-136AG","SEMIMAJOR_AXIS":"6917.836","RA_OF_ASC_NODE":"69.0792","MEAN_MOTION":"15.08854617","ECCENTRICITY":"0.00008910","TLE_LINE1":"1 54081U 22136AG  23020.86688672  .00000120  00000-0  25630-4 0  9993","CLASSIFICATION_TYPE":"U","TIME_SYSTEM":"UTC","ARG_OF_PERICENTER":"96.1855","INCLINATION":"53.2174","EPOCH":"2023-01-20T20:48:19.012608","MEAN_MOTION_DOT":"0.00000120","PERIAPSIS":"539.084","BSTAR":"0.00002563000000","REV_AT_EPOCH":"1478","DECAY_DATE":null,"FILE":"3756251","ELEMENT_SET_NO":"999","GP_ID":"223556401","MEAN_ANOMALY":"263.9239","SITE":"AFETR","MEAN_MOTION_DDOT":"0.0000000000000"}];
